{"type": "FeatureCollection", "features": [{"type": "Feature", "geometry": {"type": "Point", "coordinates": [139.7010375, 35.6571043]}, "properties": {"tls": "11387427658", "edge": "1201531278#0", "links": [0, 1], "bearing": 327.6}}, {"type": "Feature", "geometry": {"type": "Point", "coordinates": [139.7009377, 35.6572519]}, "properties": {"tls": "11387427658", "edge": "1256773487", "links": [2, 3], "bearing": 158.7}}, {"type": "Feature", "geometry": {"type": "Point", "coordinates": [139.7128864, 35.66205]}, "properties": {"tls": "2393491316", "edge": "-140349264#1", "links": [0, 1, 2], "bearing": 212.0}}, {"type": "Feature", "geometry": {"type": "Point", "coordinates": [139.7129442, 35.661926]}, "properties": {"tls": "2393491316", "edge": "390852605#0", "links": [3, 4, 5], "bearing": 304.8}}, {"type": "Feature", "geometry": {"type": "Point", "coordinates": [139.7127936, 35.6618798]}, "properties": {"tls": "2393491316", "edge": "265033762#0", "links": [6, 7, 8], "bearing": 34.0}}, {"type": "Feature", "geometry": {"type": "Point", "coordinates": [139.7127367, 35.662003]}, "properties": {"tls": "2393491316", "edge": "-390852605#7", "links": [9, 10, 11], "bearing": 124.0}}, {"type": "Feature", "geometry": {"type": "Point", "coordinates": [139.6981116, 35.6528202]}, "properties": {"tls": "244091670", "edge": "-221185495#0", "links": [0, 1], "bearing": 336.0}}, {"type": "Feature", "geometry": {"type": "Point", "coordinates": [139.6979275, 35.6528436]}, "properties": {"tls": "244091670", "edge": "258432973#0", "links": [2, 3, 4], "bearing": 63.9}}, {"type": "Feature", "geometry": {"type": "Point", "coordinates": [139.6980119, 35.6529715]}, "properties": {"tls": "244091670", "edge": "49258336#4", "links": [5, 6, 7], "bearing": 153.8}}, {"type": "Feature", "geometry": {"type": "Point", "coordinates": [139.6994123, 35.6623709]}, "properties": {"tls": "250652228", "edge": "691240263#2", "links": [0, 1, 2], "bearing": 277.4}}, {"type": "Feature", "geometry": {"type": "Point", "coordinates": [139.6993351, 35.6622708]}, "properties": {"tls": "250652228", "edge": "-976275946", "links": [3, 4, 5], "bearing": 343.7}}, {"type": "Feature", "geometry": {"type": "Point", "coordinates": [139.6991658, 35.6623517]}, "properties": {"tls": "250652228", "edge": "-976275942", "links": [6, 7, 8], "bearing": 88.8}}, {"type": "Feature", "geometry": {"type": "Point", "coordinates": [139.6992529, 35.6624611]}, "properties": {"tls": "250652228", "edge": "976275950", "links": [9, 10, 11], "bearing": 176.1}}, {"type": "Feature", "geometry": {"type": "Point", "coordinates": [139.6974251, 35.6622364]}, "properties": {"tls": "250652233", "edge": "202129899#3", "links": [0], "bearing": 250.6}}, {"type": "Feature", "geometry": {"type": "Point", "coordinates": [139.697413, 35.6621194]}, "properties": {"tls": "250652233", "edge": "202129903#10", "links": [1, 2], "bearing": 315.6}}, {"type": "Feature", "geometry": {"type": "Point", "coordinates": [139.7007911, 35.6605175]}, "properties": {"tls": "252674261", "edge": "261815523#0", "links": [0, 1, 2], "bearing": 183.1}}, {"type": "Feature", "geometry": {"type": "Point", "coordinates": [139.7008349, 35.660351]}, "properties": {"tls": "252674261", "edge": "-1134562281#1", "links": [3, 4, 5, 6], "bearing": 3.7}}, {"type": "Feature", "geometry": {"type": "Point", "coordinates": [139.7008106, 35.662308]}, "properties": {"tls": "252674320", "edge": "265139657#0", "links": [0, 1, 2], "bearing": 180.4}}, {"type": "Feature", "geometry": {"type": "Point", "coordinates": [139.7009508, 35.6622001]}, "properties": {"tls": "252674320", "edge": "1416014947#0", "links": [3, 4, 5], "bearing": 284.6}}, {"type": "Feature", "geometry": {"type": "Point", "coordinates": [139.7008431, 35.6621107]}, "properties": {"tls": "252674320", "edge": "-691240265#3", "links": [6, 7, 8], "bearing": 2.4}}, {"type": "Feature", "geometry": {"type": "Point", "coordinates": [139.7007075, 35.662214]}, "properties": {"tls": "252674320", "edge": "-691240263#1", "links": [9, 10, 11], "bearing": 101.5}}, {"type": "Feature", "geometry": {"type": "Point", "coordinates": [139.6928119, 35.65484]}, "properties": {"tls": "256368895", "edge": "136396048#1", "links": [0, 1, 2], "bearing": 226.4}}, {"type": "Feature", "geometry": {"type": "Point", "coordinates": [139.6927874, 35.654699]}, "properties": {"tls": "256368895", "edge": "-1391341945", "links": [3, 4, 5, 6], "bearing": 326.4}}, {"type": "Feature", "geometry": {"type": "Point", "coordinates": [139.6925343, 35.6547424]}, "properties": {"tls": "256368895", "edge": "28993425#0", "links": [7, 8, 9], "bearing": 94.6}}, {"type": "Feature", "geometry": {"type": "Point", "coordinates": [139.692577, 35.6548513]}, "properties": {"tls": "256368895", "edge": "813227199#2", "links": [10, 11, 12, 13], "bearing": 147.2}}, {"type": "Feature", "geometry": {"type": "Point", "coordinates": [139.6919448, 35.6558218]}, "properties": {"tls": "258037424", "edge": "-813227199#1", "links": [0, 1, 2, 3], "bearing": 331.6}}, {"type": "Feature", "geometry": {"type": "Point", "coordinates": [139.6916876, 35.6558769]}, "properties": {"tls": "258037424", "edge": "-1311822246", "links": [4, 5, 6], "bearing": 89.9}}, {"type": "Feature", "geometry": {"type": "Point", "coordinates": [139.6917654, 35.655991]}, "properties": {"tls": "258037424", "edge": "813227199#0", "links": [7, 8, 9, 10], "bearing": 158.2}}, {"type": "Feature", "geometry": {"type": "Point", "coordinates": [139.7089988, 35.6522954]}, "properties": {"tls": "2676633346", "edge": "1464243734#0", "links": [0, 1, 2], "bearing": 176.2}}, {"type": "Feature", "geometry": {"type": "Point", "coordinates": [139.7089066, 35.6522178]}, "properties": {"tls": "2844415465", "edge": "142757180#2", "links": [0, 1], "bearing": 357.3}}, {"type": "Feature", "geometry": {"type": "Point", "coordinates": [139.7005973, 35.6596082]}, "properties": {"tls": "291758776", "edge": "260252968#0", "links": [0, 1, 2, 3, 4], "bearing": 196.5}}, {"type": "Feature", "geometry": {"type": "Point", "coordinates": [139.700701, 35.659501]}, "properties": {"tls": "291758776", "edge": "-1071930092", "links": [5, 6, 7, 8, 9], "bearing": 276.3}}, {"type": "Feature", "geometry": {"type": "Point", "coordinates": [139.7003997, 35.659392]}, "properties": {"tls": "291758776", "edge": "1134562284", "links": [10, 11, 12, 13, 14], "bearing": 58.1}}, {"type": "Feature", "geometry": {"type": "Point", "coordinates": [139.7002374, 35.6594942]}, "properties": {"tls": "291758776", "edge": "23334685", "links": [15, 16, 17, 18, 19], "bearing": 99.4}}, {"type": "Feature", "geometry": {"type": "Point", "coordinates": [139.7017734, 35.666805]}, "properties": {"tls": "295413669", "edge": "967529919#1", "links": [0, 1], "bearing": 184.8}}, {"type": "Feature", "geometry": {"type": "Point", "coordinates": [139.701792, 35.6666187]}, "properties": {"tls": "295413669", "edge": "-153108796#1", "links": [2, 3], "bearing": 5.1}}, {"type": "Feature", "geometry": {"type": "Point", "coordinates": [139.7016665, 35.6666944]}, "properties": {"tls": "295413669", "edge": "1230232225", "links": [4, 5], "bearing": 86.4}}, {"type": "Feature", "geometry": {"type": "Point", "coordinates": [139.700812, 35.6612138]}, "properties": {"tls": "309701920", "edge": "691240265#0", "links": [0, 1, 2], "bearing": 180.4}}, {"type": "Feature", "geometry": {"type": "Point", "coordinates": [139.7008665, 35.661032]}, "properties": {"tls": "309701920", "edge": "-261815523#3", "links": [3, 4], "bearing": 359.4}}, {"type": "Feature", "geometry": {"type": "Point", "coordinates": [139.700683, 35.6611124]}, "properties": {"tls": "309701920", "edge": "976275941#2", "links": [5, 6], "bearing": 93.8}}, {"type": "Feature", "geometry": {"type": "Point", "coordinates": [139.7101544, 35.6553967]}, "properties": {"tls": "382020729", "edge": "-84514717#0", "links": [0, 1], "bearing": 236.2}}, {"type": "Feature", "geometry": {"type": "Point", "coordinates": [139.7100183, 35.6552844]}, "properties": {"tls": "382020729", "edge": "-141322267#0", "links": [2, 3], "bearing": 55.4}}, {"type": "Feature", "geometry": {"type": "Point", "coordinates": [139.700992, 35.6543217]}, "properties": {"tls": "383209719", "edge": "-56251322#2", "links": [0, 1], "bearing": 191.6}}, {"type": "Feature", "geometry": {"type": "Point", "coordinates": [139.7011147, 35.6542264]}, "properties": {"tls": "383209719", "edge": "-833121313#0", "links": [2, 3], "bearing": 279.4}}, {"type": "Feature", "geometry": {"type": "Point", "coordinates": [139.7010359, 35.6541308]}, "properties": {"tls": "383209719", "edge": "56251322#1", "links": [4, 5], "bearing": 341.2}}, {"type": "Feature", "geometry": {"type": "Point", "coordinates": [139.7008778, 35.6542407]}, "properties": {"tls": "383209719", "edge": "56252212#3", "links": [6, 7, 8], "bearing": 99.1}}, {"type": "Feature", "geometry": {"type": "Point", "coordinates": [139.7044774, 35.6612768]}, "properties": {"tls": "517547743", "edge": "96368959", "links": [0, 1, 2], "bearing": 240.5}}, {"type": "Feature", "geometry": {"type": "Point", "coordinates": [139.7044726, 35.6611844]}, "properties": {"tls": "517547743", "edge": "-931455735#6", "links": [3, 4], "bearing": 305.8}}, {"type": "Feature", "geometry": {"type": "Point", "coordinates": [139.7042505, 35.661251]}, "properties": {"tls": "517547743", "edge": "931455735#3", "links": [5, 6], "bearing": 113.6}}, {"type": "Feature", "geometry": {"type": "Point", "coordinates": [139.7066722, 35.6606881]}, "properties": {"tls": "517547828", "edge": "172125348#0", "links": [0, 1, 2, 3], "bearing": 51.7}}, {"type": "Feature", "geometry": {"type": "Point", "coordinates": [139.6993553, 35.6634463]}, "properties": {"tls": "597689467", "edge": "866597195#0", "links": [0, 1, 2], "bearing": 276.0}}, {"type": "Feature", "geometry": {"type": "Point", "coordinates": [139.6992741, 35.6633356]}, "properties": {"tls": "597689467", "edge": "-1066165139#5", "links": [3, 4], "bearing": 355.2}}, {"type": "Feature", "geometry": {"type": "Point", "coordinates": [139.6991346, 35.6633908]}, "properties": {"tls": "597689467", "edge": "138557611#0", "links": [5, 6], "bearing": 74.7}}, {"type": "Feature", "geometry": {"type": "Point", "coordinates": [139.6992028, 35.6635163]}, "properties": {"tls": "597689467", "edge": "1066165139#2", "links": [7, 8], "bearing": 168.0}}, {"type": "Feature", "geometry": {"type": "Point", "coordinates": [139.702108, 35.6519466]}, "properties": {"tls": "650086670", "edge": "50988451#0", "links": [0, 1], "bearing": 232.4}}, {"type": "Feature", "geometry": {"type": "Point", "coordinates": [139.701955, 35.6518073]}, "properties": {"tls": "650086670", "edge": "-50988451#1", "links": [2, 3], "bearing": 50.3}}, {"type": "Feature", "geometry": {"type": "Point", "coordinates": [139.7019573, 35.6519592]}, "properties": {"tls": "650086670", "edge": "-56251322#0", "links": [4, 5], "bearing": 158.0}}, {"type": "Feature", "geometry": {"type": "Point", "coordinates": [139.6955995, 35.6600896]}, "properties": {"tls": "664495203", "edge": "-310155108#1", "links": [0, 1, 2], "bearing": 247.1}}, {"type": "Feature", "geometry": {"type": "Point", "coordinates": [139.69541, 35.6599862]}, "properties": {"tls": "664495203", "edge": "31856144#14", "links": [3, 4, 5], "bearing": 65.5}}, {"type": "Feature", "geometry": {"type": "Point", "coordinates": [139.6954319, 35.6601129]}, "properties": {"tls": "664495203", "edge": "23334638#0", "links": [6, 7, 8], "bearing": 144.5}}, {"type": "Feature", "geometry": {"type": "Point", "coordinates": [139.6950466, 35.6525632]}, "properties": {"tls": "696656230", "edge": "-49257837#0", "links": [0, 1], "bearing": 218.7}}, {"type": "Feature", "geometry": {"type": "Point", "coordinates": [139.6950581, 35.6524116]}, "properties": {"tls": "696656230", "edge": "-817025208#6", "links": [2, 3, 4], "bearing": 319.6}}, {"type": "Feature", "geometry": {"type": "Point", "coordinates": [139.6948549, 35.6525097]}, "properties": {"tls": "696656230", "edge": "817025208#4", "links": [5, 6, 7], "bearing": 138.1}}, {"type": "Feature", "geometry": {"type": "Point", "coordinates": [139.7067759, 35.6525513]}, "properties": {"tls": "701831690", "edge": "-55893476#0", "links": [0, 1], "bearing": 210.8}}, {"type": "Feature", "geometry": {"type": "Point", "coordinates": [139.7067956, 35.6523904]}, "properties": {"tls": "701831690", "edge": "-74271100#2", "links": [2, 3], "bearing": 325.8}}, {"type": "Feature", "geometry": {"type": "Point", "coordinates": [139.7066352, 35.6525331]}, "properties": {"tls": "701831690", "edge": "74271100#1", "links": [4, 5], "bearing": 147.5}}, {"type": "Feature", "geometry": {"type": "Point", "coordinates": [139.7137329, 35.6644375]}, "properties": {"tls": "885679780", "edge": "-23811751#4", "links": [0, 1], "bearing": 308.6}}, {"type": "Feature", "geometry": {"type": "Point", "coordinates": [139.71356, 35.6645093]}, "properties": {"tls": "885679780", "edge": "23811751#0", "links": [2, 3], "bearing": 127.7}}, {"type": "Feature", "geometry": {"type": "Point", "coordinates": [139.7012422, 35.6634542]}, "properties": {"tls": "9698257844", "edge": "375809332#1", "links": [0, 1], "bearing": 183.8}}, {"type": "Feature", "geometry": {"type": "Point", "coordinates": [139.7013693, 35.6634055]}, "properties": {"tls": "9698257844", "edge": "798794765#0", "links": [2, 3], "bearing": 245.1}}, {"type": "Feature", "geometry": {"type": "Point", "coordinates": [139.7011944, 35.6632737]}, "properties": {"tls": "9698257844", "edge": "-265139657#2", "links": [4, 5], "bearing": 49.5}}, {"type": "Feature", "geometry": {"type": "Point", "coordinates": [139.7110502, 35.6558966]}, "properties": {"tls": "981913600", "edge": "-84514717#1", "links": [0, 1, 2], "bearing": 237.9}}, {"type": "Feature", "geometry": {"type": "Point", "coordinates": [139.7109818, 35.6557176]}, "properties": {"tls": "981913600", "edge": "-141322255", "links": [3, 4, 5], "bearing": 353.0}}, {"type": "Feature", "geometry": {"type": "Point", "coordinates": [139.7108452, 35.6557504]}, "properties": {"tls": "981913600", "edge": "84514717#0", "links": [6, 7, 8], "bearing": 56.1}}, {"type": "Feature", "geometry": {"type": "Point", "coordinates": [139.7109152, 35.6559331]}, "properties": {"tls": "981913600", "edge": "-84514718", "links": [9, 10, 11], "bearing": 175.1}}, {"type": "Feature", "geometry": {"type": "Point", "coordinates": [139.6973714, 35.6588029]}, "properties": {"tls": "GS_1014529837", "edge": "1256602979", "links": [0, 1], "bearing": 228.8}}, {"type": "Feature", "geometry": {"type": "Point", "coordinates": [139.6972581, 35.6586765]}, "properties": {"tls": "GS_1014529837", "edge": "-907042282#3", "links": [2, 3], "bearing": 46.5}}, {"type": "Feature", "geometry": {"type": "Point", "coordinates": [139.6969854, 35.6605141]}, "properties": {"tls": "GS_252675826", "edge": "-153108795#1", "links": [0, 1], "bearing": 292.4}}, {"type": "Feature", "geometry": {"type": "Point", "coordinates": [139.6967804, 35.6604747]}, "properties": {"tls": "GS_252675826", "edge": "310155108#2", "links": [2, 3], "bearing": 68.4}}, {"type": "Feature", "geometry": {"type": "Point", "coordinates": [139.6967904, 35.6605938]}, "properties": {"tls": "GS_252675826", "edge": "945779623#0", "links": [4, 5], "bearing": 136.4}}, {"type": "Feature", "geometry": {"type": "Point", "coordinates": [139.6995579, 35.6595629]}, "properties": {"tls": "GS_252675828", "edge": "-1134562285", "links": [0, 1], "bearing": 258.3}}, {"type": "Feature", "geometry": {"type": "Point", "coordinates": [139.6993026, 35.659441]}, "properties": {"tls": "GS_252675828", "edge": "-1134562287", "links": [2, 3, 4], "bearing": 69.6}}, {"type": "Feature", "geometry": {"type": "Point", "coordinates": [139.6993254, 35.6595836]}, "properties": {"tls": "GS_252675828", "edge": "1134562286#0", "links": [5, 6], "bearing": 136.2}}, {"type": "Feature", "geometry": {"type": "Point", "coordinates": [139.696917, 35.6644505]}, "properties": {"tls": "GS_508443341", "edge": "-1230232220#2", "links": [0, 1], "bearing": 245.4}}, {"type": "Feature", "geometry": {"type": "Point", "coordinates": [139.6968814, 35.6643135]}, "properties": {"tls": "GS_508443341", "edge": "-1066615417", "links": [2, 3], "bearing": 341.6}}, {"type": "Feature", "geometry": {"type": "Point", "coordinates": [139.6967306, 35.6643403]}, "properties": {"tls": "GS_508443341", "edge": "153109040#1", "links": [4, 5], "bearing": 58.8}}, {"type": "Feature", "geometry": {"type": "Point", "coordinates": [139.7125233, 35.6653669]}, "properties": {"tls": "GS_cluster_1111686866_1111712244_158030016", "edge": "-375809334#2", "links": [0, 1], "bearing": 217.0}}, {"type": "Feature", "geometry": {"type": "Point", "coordinates": [139.7127154, 35.6652505]}, "properties": {"tls": "GS_cluster_1111686866_1111712244_158030016", "edge": "273263244#0", "links": [2, 3, 4, 5, 6], "bearing": 217.1}}, {"type": "Feature", "geometry": {"type": "Point", "coordinates": [139.7127202, 35.6650614]}, "properties": {"tls": "GS_cluster_1111686866_1111712244_158030016", "edge": "-23811751#2", "links": [7, 8, 9, 10, 11, 12], "bearing": 307.8}}, {"type": "Feature", "geometry": {"type": "Point", "coordinates": [139.7123511, 35.6650791]}, "properties": {"tls": "GS_cluster_1111686866_1111712244_158030016", "edge": "475458685#4", "links": [13, 14, 15, 16, 17, 18], "bearing": 37.8}}, {"type": "Feature", "geometry": {"type": "Point", "coordinates": [139.7123597, 35.6653208]}, "properties": {"tls": "GS_cluster_1111686866_1111712244_158030016", "edge": "944268181#0", "links": [19, 20, 21, 22], "bearing": 119.9}}, {"type": "Feature", "geometry": {"type": "Point", "coordinates": [139.7106299, 35.6661519]}, "properties": {"tls": "GS_cluster_1111686870_158030002_2706852340", "edge": "890756978#0", "links": [0], "bearing": 213.9}}, {"type": "Feature", "geometry": {"type": "Point", "coordinates": [139.7106728, 35.6660024]}, "properties": {"tls": "GS_cluster_1111686870_158030002_2706852340", "edge": "390852610#0", "links": [1, 2, 3, 4, 5], "bearing": 301.5}}, {"type": "Feature", "geometry": {"type": "Point", "coordinates": [139.710505, 35.6660497]}, "properties": {"tls": "GS_cluster_1111686870_158030002_2706852340", "edge": "260285926#0", "links": [6, 7, 8, 9], "bearing": 33.2}}, {"type": "Feature", "geometry": {"type": "Point", "coordinates": [139.7104818, 35.6661886]}, "properties": {"tls": "GS_cluster_1111686870_158030002_2706852340", "edge": "41521096#11", "links": [10, 11, 12, 13], "bearing": 120.6}}, {"type": "Feature", "geometry": {"type": "Point", "coordinates": [139.7022263, 35.6691864]}, "properties": {"tls": "GS_cluster_1111686902_258038133", "edge": "293229188", "links": [0, 1, 2, 3, 4], "bearing": 243.4}}, {"type": "Feature", "geometry": {"type": "Point", "coordinates": [139.7020954, 35.6690937]}, "properties": {"tls": "GS_cluster_1111686902_258038133", "edge": "-967529921#1", "links": [5, 6, 7, 8, 9], "bearing": 10.8}}, {"type": "Feature", "geometry": {"type": "Point", "coordinates": [139.70194, 35.6691635]}, "properties": {"tls": "GS_cluster_1111686902_258038133", "edge": "41521073#0", "links": [10, 11, 12, 13, 14], "bearing": 62.9}}, {"type": "Feature", "geometry": {"type": "Point", "coordinates": [139.7027705, 35.6695623]}, "properties": {"tls": "GS_cluster_1111686947_1111686949", "edge": "1152617163#0", "links": [0, 1, 2], "bearing": 187.4}}, {"type": "Feature", "geometry": {"type": "Point", "coordinates": [139.702907, 35.669471]}, "properties": {"tls": "GS_cluster_1111686947_1111686949", "edge": "944268180#2", "links": [3, 4, 5, 6, 7], "bearing": 252.5}}, {"type": "Feature", "geometry": {"type": "Point", "coordinates": [139.7026624, 35.6694734]}, "properties": {"tls": "GS_cluster_1111686947_1111686949", "edge": "41521330#0", "links": [8, 9, 10], "bearing": 63.8}}, {"type": "Feature", "geometry": {"type": "Point", "coordinates": [139.7066221, 35.6553145]}, "properties": {"tls": "GS_cluster_1562273629_2245842881_701831697", "edge": "141293466#0", "links": [0, 1, 2, 3, 4], "bearing": 208.0}}, {"type": "Feature", "geometry": {"type": "Point", "coordinates": [139.7066615, 35.6551323]}, "properties": {"tls": "GS_cluster_1562273629_2245842881_701831697", "edge": "1147535100#0", "links": [5, 6, 7, 8, 9], "bearing": 316.5}}, {"type": "Feature", "geometry": {"type": "Point", "coordinates": [139.7065931, 35.6551503]}, "properties": {"tls": "GS_cluster_1562273629_2245842881_701831697", "edge": "-310155100", "links": [10, 11, 12, 13], "bearing": 25.6}}, {"type": "Feature", "geometry": {"type": "Point", "coordinates": [139.7064878, 35.6552372]}, "properties": {"tls": "GS_cluster_1562273629_2245842881_701831697", "edge": "-56757425#1", "links": [14, 15, 16, 17], "bearing": 63.5}}, {"type": "Feature", "geometry": {"type": "Point", "coordinates": [139.7065222, 35.6553664]}, "properties": {"tls": "GS_cluster_1562273629_2245842881_701831697", "edge": "1087233629#5", "links": [18, 19, 20, 21, 22, 23], "bearing": 136.0}}, {"type": "Feature", "geometry": {"type": "Point", "coordinates": [139.703416, 35.6579979]}, "properties": {"tls": "GS_cluster_1685220981_1685220982_196971409_253890308", "edge": "172125347#0", "links": [0, 1, 2, 3, 4, 5], "bearing": 261.8}}, {"type": "Feature", "geometry": {"type": "Point", "coordinates": [139.7032813, 35.6578449]}, "properties": {"tls": "GS_cluster_1685220981_1685220982_196971409_253890308", "edge": "1087233628#0", "links": [6, 7, 8, 9, 10, 11], "bearing": 325.3}}, {"type": "Feature", "geometry": {"type": "Point", "coordinates": [139.7028438, 35.6580174]}, "properties": {"tls": "GS_cluster_1685220981_1685220982_196971409_253890308", "edge": "1330873776", "links": [12, 13, 14, 15, 16], "bearing": 72.9}}, {"type": "Feature", "geometry": {"type": "Point", "coordinates": [139.7028106, 35.6580775]}, "properties": {"tls": "GS_cluster_1685220981_1685220982_196971409_253890308", "edge": "1117318756", "links": [17, 18, 19, 20, 21, 22], "bearing": 69.1}}, {"type": "Feature", "geometry": {"type": "Point", "coordinates": [139.7030797, 35.6582562]}, "properties": {"tls": "GS_cluster_1685220981_1685220982_196971409_253890308", "edge": "310155083#1", "links": [23, 24, 25, 26, 27, 28], "bearing": 155.4}}, {"type": "Feature", "geometry": {"type": "Point", "coordinates": [139.7025007, 35.6595772]}, "properties": {"tls": "GS_cluster_1685220989_252683801", "edge": "-375809353#1", "links": [0, 1, 2, 3], "bearing": 260.1}}, {"type": "Feature", "geometry": {"type": "Point", "coordinates": [139.7024146, 35.6594166]}, "properties": {"tls": "GS_cluster_1685220989_252683801", "edge": "350053182#0", "links": [4, 5, 6, 7], "bearing": 343.5}}, {"type": "Feature", "geometry": {"type": "Point", "coordinates": [139.7023406, 35.6595077]}, "properties": {"tls": "GS_cluster_1685220989_252683801", "edge": "1071930093", "links": [8, 9, 10], "bearing": 81.5}}, {"type": "Feature", "geometry": {"type": "Point", "coordinates": [139.7024361, 35.6596725]}, "properties": {"tls": "GS_cluster_1685220989_252683801", "edge": "931455736#3", "links": [11, 12, 13, 14], "bearing": 166.7}}, {"type": "Feature", "geometry": {"type": "Point", "coordinates": [139.708332, 35.6615884]}, "properties": {"tls": "GS_cluster_256000220_256000221", "edge": "914330756#0", "links": [0, 1, 2, 3], "bearing": 233.6}}, {"type": "Feature", "geometry": {"type": "Point", "coordinates": [139.7082729, 35.6615171]}, "properties": {"tls": "GS_cluster_256000220_256000221", "edge": "-914330755#2", "links": [4, 5, 6, 7], "bearing": 325.4}}, {"type": "Feature", "geometry": {"type": "Point", "coordinates": [139.7080347, 35.6615521]}, "properties": {"tls": "GS_cluster_256000220_256000221", "edge": "914330754#1", "links": [8, 9, 10, 11], "bearing": 52.6}}, {"type": "Feature", "geometry": {"type": "Point", "coordinates": [139.6903509, 35.6555054]}, "properties": {"tls": "GS_cluster_256368891_318826043_318826081_318826086", "edge": "28993431#0", "links": [0, 1, 2, 3, 4], "bearing": 201.2}}, {"type": "Feature", "geometry": {"type": "Point", "coordinates": [139.6904115, 35.6554802]}, "properties": {"tls": "GS_cluster_256368891_318826043_318826081_318826086", "edge": "813226004#2", "links": [5, 6, 7, 8, 9], "bearing": 203.7}}, {"type": "Feature", "geometry": {"type": "Point", "coordinates": [139.690361, 35.6552542]}, "properties": {"tls": "GS_cluster_256368891_318826043_318826081_318826086", "edge": "23672782#0", "links": [10, 11, 12, 13], "bearing": 284.4}}, {"type": "Feature", "geometry": {"type": "Point", "coordinates": [139.6900964, 35.6552133]}, "properties": {"tls": "GS_cluster_256368891_318826043_318826081_318826086", "edge": "285189313#0", "links": [14, 15, 16, 17, 18, 19], "bearing": 22.1}}, {"type": "Feature", "geometry": {"type": "Point", "coordinates": [139.6900169, 35.6552988]}, "properties": {"tls": "GS_cluster_256368891_318826043_318826081_318826086", "edge": "-28993424#3", "links": [20, 21, 22, 23], "bearing": 101.7}}, {"type": "Feature", "geometry": {"type": "Point", "coordinates": [139.6900372, 35.655378]}, "properties": {"tls": "GS_cluster_256368891_318826043_318826081_318826086", "edge": "28993424#4", "links": [24, 25, 26, 27], "bearing": 102.6}}, {"type": "Feature", "geometry": {"type": "Point", "coordinates": [139.69353, 35.6539768]}, "properties": {"tls": "GS_cluster_366856009_366856257", "edge": "1067228341#0", "links": [0, 1, 2], "bearing": 233.5}}, {"type": "Feature", "geometry": {"type": "Point", "coordinates": [139.6934344, 35.6538827]}, "properties": {"tls": "GS_cluster_366856009_366856257", "edge": "-817025208#1", "links": [3, 4, 5, 6], "bearing": 324.7}}, {"type": "Feature", "geometry": {"type": "Point", "coordinates": [139.6930902, 35.6540179]}, "properties": {"tls": "GS_cluster_366856009_366856257", "edge": "1067228338#0", "links": [7, 8, 9, 10, 11], "bearing": 53.6}}, {"type": "Feature", "geometry": {"type": "Point", "coordinates": [139.6931654, 35.6541005]}, "properties": {"tls": "GS_cluster_366856009_366856257", "edge": "968189476", "links": [12, 13, 14, 15], "bearing": 147.5}}, {"type": "Feature", "geometry": {"type": "Point", "coordinates": [139.6948947, 35.6629497]}, "properties": {"tls": "cluster_10103318008_1014529364", "edge": "46770374", "links": [0], "bearing": 305.1}}, {"type": "Feature", "geometry": {"type": "Point", "coordinates": [139.6945777, 35.6628893]}, "properties": {"tls": "cluster_10103318008_1014529364", "edge": "1071667141#0", "links": [1, 2, 3], "bearing": 139.0}}, {"type": "Feature", "geometry": {"type": "Point", "coordinates": [139.6986277, 35.6599874]}, "properties": {"tls": "cluster_1014529394_13038536249_1745599774_2253591032", "edge": "162719649", "links": [0, 1, 2], "bearing": 205.7}}, {"type": "Feature", "geometry": {"type": "Point", "coordinates": [139.6986185, 35.659907]}, "properties": {"tls": "cluster_1014529394_13038536249_1745599774_2253591032", "edge": "-153108795#12", "links": [3, 4], "bearing": 295.0}}, {"type": "Feature", "geometry": {"type": "Point", "coordinates": [139.6982876, 35.6600011]}, "properties": {"tls": "cluster_1014529394_13038536249_1745599774_2253591032", "edge": "153108795#3", "links": [5, 6], "bearing": 116.0}}, {"type": "Feature", "geometry": {"type": "Point", "coordinates": [139.704445, 35.6583468]}, "properties": {"tls": "cluster_10178958380_2138385688_2138385690_252835330_#2more", "edge": "1035566982#0", "links": [0, 1, 2], "bearing": 207.4}}, {"type": "Feature", "geometry": {"type": "Point", "coordinates": [139.7048254, 35.6580694]}, "properties": {"tls": "cluster_10178958380_2138385688_2138385690_252835330_#2more", "edge": "284075894#3", "links": [3, 4, 5], "bearing": 270.0}}, {"type": "Feature", "geometry": {"type": "Point", "coordinates": [139.7047126, 35.6579747]}, "properties": {"tls": "cluster_10178958380_2138385688_2138385690_252835330_#2more", "edge": "211286456", "links": [6, 7], "bearing": 350.4}}, {"type": "Feature", "geometry": {"type": "Point", "coordinates": [139.7043008, 35.658246]}, "properties": {"tls": "cluster_10178958380_2138385688_2138385690_252835330_#2more", "edge": "23673079#0", "links": [8, 9, 10, 11], "bearing": 78.9}}, {"type": "Feature", "geometry": {"type": "Point", "coordinates": [139.7054708, 35.6685375]}, "properties": {"tls": "cluster_1111686855_1685221090_3790205544_3790205545", "edge": "798794768#4", "links": [0, 1, 2, 3], "bearing": 210.9}}, {"type": "Feature", "geometry": {"type": "Point", "coordinates": [139.7054372, 35.6684245]}, "properties": {"tls": "cluster_1111686855_1685221090_3790205544_3790205545", "edge": "1368012336#8", "links": [4, 5, 6, 7, 8], "bearing": 301.1}}, {"type": "Feature", "geometry": {"type": "Point", "coordinates": [139.7053212, 35.6684483]}, "properties": {"tls": "cluster_1111686855_1685221090_3790205544_3790205545", "edge": "798739072#9", "links": [9, 10, 11, 12], "bearing": 31.6}}, {"type": "Feature", "geometry": {"type": "Point", "coordinates": [139.7053554, 35.66856]}, "properties": {"tls": "cluster_1111686855_1685221090_3790205544_3790205545", "edge": "41521096#1", "links": [13, 14, 15, 16, 17], "bearing": 120.4}}, {"type": "Feature", "geometry": {"type": "Point", "coordinates": [139.7061886, 35.6602169]}, "properties": {"tls": "cluster_13016446512_13016446513_13031660187_13031660190_#5more", "edge": "1035566979#0", "links": [0, 1, 2, 3, 4, 5], "bearing": 233.4}}, {"type": "Feature", "geometry": {"type": "Point", "coordinates": [139.7061028, 35.6601272]}, "properties": {"tls": "cluster_13016446512_13016446513_13031660187_13031660190_#5more", "edge": "-138671939#2", "links": [6, 7, 8, 9], "bearing": 318.7}}, {"type": "Feature", "geometry": {"type": "Point", "coordinates": [139.7055938, 35.6598109]}, "properties": {"tls": "cluster_13016446512_13016446513_13031660187_13031660190_#5more", "edge": "852978899#1", "links": [10, 11, 12, 13, 14, 15], "bearing": 37.8}}, {"type": "Feature", "geometry": {"type": "Point", "coordinates": [139.7053027, 35.660044]}, "properties": {"tls": "cluster_13016446512_13016446513_13031660187_13031660190_#5more", "edge": "375809353#5", "links": [16, 17, 18, 19], "bearing": 75.5}}, {"type": "Feature", "geometry": {"type": "Point", "coordinates": [139.7059443, 35.6602351]}, "properties": {"tls": "cluster_13016446512_13016446513_13031660187_13031660190_#5more", "edge": "1416429955", "links": [20, 21, 22, 23], "bearing": 142.2}}, {"type": "Feature", "geometry": {"type": "Point", "coordinates": [139.7016505, 35.6567971]}, "properties": {"tls": "cluster_1539111428_2253585427_7682151511", "edge": "-1412628592#0", "links": [0, 1], "bearing": 298.0}}, {"type": "Feature", "geometry": {"type": "Point", "coordinates": [139.7016741, 35.6565835]}, "properties": {"tls": "cluster_1539111428_2253585427_7682151511", "edge": "51894812#4", "links": [2, 3], "bearing": 326.3}}, {"type": "Feature", "geometry": {"type": "Point", "coordinates": [139.7015544, 35.6565502]}, "properties": {"tls": "cluster_1539111428_2253585427_7682151511", "edge": "49042351#1", "links": [4, 5, 6], "bearing": 11.8}}, {"type": "Feature", "geometry": {"type": "Point", "coordinates": [139.701525, 35.6568001]}, "properties": {"tls": "cluster_1539111428_2253585427_7682151511", "edge": "-822783956#1", "links": [7, 8], "bearing": 117.2}}, {"type": "Feature", "geometry": {"type": "Point", "coordinates": [139.7091567, 35.6513817]}, "properties": {"tls": "cluster_1562273206_387766335", "edge": "141322270#0", "links": [0, 1, 2], "bearing": 252.3}}, {"type": "Feature", "geometry": {"type": "Point", "coordinates": [139.7090729, 35.6512456]}, "properties": {"tls": "cluster_1562273206_387766335", "edge": "142757180#0", "links": [3, 4, 5], "bearing": 340.3}}, {"type": "Feature", "geometry": {"type": "Point", "coordinates": [139.7090962, 35.6514456]}, "properties": {"tls": "cluster_1562273206_387766335", "edge": "1463386213#0", "links": [6, 7, 8, 9], "bearing": 162.6}}, {"type": "Feature", "geometry": {"type": "Point", "coordinates": [139.7078949, 35.6541319]}, "properties": {"tls": "cluster_1562273613_701831710", "edge": "84154024#1", "links": [0, 1, 2], "bearing": 234.5}}, {"type": "Feature", "geometry": {"type": "Point", "coordinates": [139.7079028, 35.6539936]}, "properties": {"tls": "cluster_1562273613_701831710", "edge": "1464243732#0", "links": [3, 4, 5, 6], "bearing": 310.2}}, {"type": "Feature", "geometry": {"type": "Point", "coordinates": [139.7078328, 35.6540139]}, "properties": {"tls": "cluster_1562273613_701831710", "edge": "142757183#0", "links": [7, 8, 9], "bearing": 20.5}}, {"type": "Feature", "geometry": {"type": "Point", "coordinates": [139.7077766, 35.6541698]}, "properties": {"tls": "cluster_1562273613_701831710", "edge": "1147535099#0", "links": [10, 11, 12, 13], "bearing": 129.0}}, {"type": "Feature", "geometry": {"type": "Point", "coordinates": [139.7023298, 35.6618686]}, "properties": {"tls": "cluster_158030029_1685221014", "edge": "-931455735#1", "links": [0, 1, 2], "bearing": 290.7}}, {"type": "Feature", "geometry": {"type": "Point", "coordinates": [139.7021968, 35.6617822]}, "properties": {"tls": "cluster_158030029_1685221014", "edge": "534157302#0", "links": [3, 4, 5, 6, 7], "bearing": 358.5}}, {"type": "Feature", "geometry": {"type": "Point", "coordinates": [139.7021435, 35.6618868]}, "properties": {"tls": "cluster_158030029_1685221014", "edge": "-23179562#1", "links": [8, 9, 10], "bearing": 104.9}}, {"type": "Feature", "geometry": {"type": "Point", "coordinates": [139.7022827, 35.661982]}, "properties": {"tls": "cluster_158030029_1685221014", "edge": "213526435#1", "links": [11, 12, 13, 14], "bearing": 179.5}}, {"type": "Feature", "geometry": {"type": "Point", "coordinates": [139.7024437, 35.6643799]}, "properties": {"tls": "cluster_1685221042_517547731", "edge": "798794768#14", "links": [0, 1, 2, 3], "bearing": 202.9}}, {"type": "Feature", "geometry": {"type": "Point", "coordinates": [139.7024385, 35.6642981]}, "properties": {"tls": "cluster_1685221042_517547731", "edge": "-798739070#1", "links": [4, 5, 6], "bearing": 291.9}}, {"type": "Feature", "geometry": {"type": "Point", "coordinates": [139.7022548, 35.6642268]}, "properties": {"tls": "cluster_1685221042_517547731", "edge": "798794764#0", "links": [7, 8, 9, 10], "bearing": 19.5}}, {"type": "Feature", "geometry": {"type": "Point", "coordinates": [139.7022592, 35.6643304]}, "properties": {"tls": "cluster_1685221042_517547731", "edge": "41857282#0", "links": [11, 12, 13], "bearing": 122.8}}, {"type": "Feature", "geometry": {"type": "Point", "coordinates": [139.7105941, 35.6632508]}, "properties": {"tls": "cluster_2397973268_258035757_258035758_517545322", "edge": "41857198#2", "links": [0, 1, 2], "bearing": 187.5}}, {"type": "Feature", "geometry": {"type": "Point", "coordinates": [139.7107999, 35.6632086]}, "properties": {"tls": "cluster_2397973268_258035757_258035758_517545322", "edge": "375809349#2", "links": [3, 4, 5, 6, 7], "bearing": 220.9}}, {"type": "Feature", "geometry": {"type": "Point", "coordinates": [139.7107709, 35.663131]}, "properties": {"tls": "cluster_2397973268_258035757_258035758_517545322", "edge": "390852605#9", "links": [8, 9, 10], "bearing": 308.0}}, {"type": "Feature", "geometry": {"type": "Point", "coordinates": [139.7103249, 35.6629912]}, "properties": {"tls": "cluster_2397973268_258035757_258035758_517545322", "edge": "14984703#1", "links": [11, 12, 13, 14, 15, 16], "bearing": 53.9}}, {"type": "Feature", "geometry": {"type": "Point", "coordinates": [139.7103582, 35.6630431]}, "properties": {"tls": "cluster_2397973268_258035757_258035758_517545322", "edge": "265033766#5", "links": [17, 18, 19, 20, 21], "bearing": 130.2}}, {"type": "Feature", "geometry": {"type": "Point", "coordinates": [139.7022113, 35.6637268]}, "properties": {"tls": "cluster_252683741_3790205548", "edge": "798739071#0", "links": [0, 1, 2, 3], "bearing": 187.6}}, {"type": "Feature", "geometry": {"type": "Point", "coordinates": [139.7021066, 35.6635329]}, "properties": {"tls": "cluster_252683741_3790205548", "edge": "931455737#0", "links": [4, 5, 6], "bearing": 0.8}}, {"type": "Feature", "geometry": {"type": "Point", "coordinates": [139.7020673, 35.6635887]}, "properties": {"tls": "cluster_252683741_3790205548", "edge": "-798794765#1", "links": [7, 8], "bearing": 70.6}}, {"type": "Feature", "geometry": {"type": "Point", "coordinates": [139.6919803, 35.6678345]}, "properties": {"tls": "cluster_295413616_309701891", "edge": "967529920#0", "links": [0, 1, 2, 3, 4], "bearing": 253.3}}, {"type": "Feature", "geometry": {"type": "Point", "coordinates": [139.6919453, 35.6677275]}, "properties": {"tls": "cluster_295413616_309701891", "edge": "23334553#6", "links": [5, 6, 7], "bearing": 327.1}}, {"type": "Feature", "geometry": {"type": "Point", "coordinates": [139.6916571, 35.6678762]}, "properties": {"tls": "cluster_295413616_309701891", "edge": "390536918#0", "links": [8, 9, 10, 11], "bearing": 73.6}}, {"type": "Feature", "geometry": {"type": "Point", "coordinates": [139.6916934, 35.6679832]}, "properties": {"tls": "cluster_295413616_309701891", "edge": "1124142896#1", "links": [12, 13, 14], "bearing": 147.8}}, {"type": "Feature", "geometry": {"type": "Point", "coordinates": [139.6951892, 35.6560874]}, "properties": {"tls": "cluster_3017328715_356644779", "edge": "1071659165", "links": [0, 1], "bearing": 208.4}}, {"type": "Feature", "geometry": {"type": "Point", "coordinates": [139.6951724, 35.6559032]}, "properties": {"tls": "cluster_3017328715_356644779", "edge": "-33476791", "links": [2, 3], "bearing": 27.9}}, {"type": "Feature", "geometry": {"type": "Point", "coordinates": [139.6949803, 35.6559344]}, "properties": {"tls": "cluster_3017328715_356644779", "edge": "1071659158", "links": [4, 5, 6, 7], "bearing": 56.3}}, {"type": "Feature", "geometry": {"type": "Point", "coordinates": [139.6949605, 35.6560348]}, "properties": {"tls": "cluster_3017328715_356644779", "edge": "-297827762", "links": [8, 9], "bearing": 120.6}}, {"type": "Feature", "geometry": {"type": "Point", "coordinates": [139.6909173, 35.6675625]}, "properties": {"tls": "cluster_353653627_353653630", "edge": "390536917#0", "links": [0, 1, 2, 3, 4], "bearing": 253.3}}, {"type": "Feature", "geometry": {"type": "Point", "coordinates": [139.6905995, 35.6676203]}, "properties": {"tls": "cluster_353653627_353653630", "edge": "390536919", "links": [5, 6, 7, 8], "bearing": 81.5}}, {"type": "Feature", "geometry": {"type": "Point", "coordinates": [139.6906424, 35.6677193]}, "properties": {"tls": "cluster_353653627_353653630", "edge": "214711015#0", "links": [9, 10, 11], "bearing": 145.5}}, {"type": "Feature", "geometry": {"type": "Point", "coordinates": [139.6962131, 35.6575894]}, "properties": {"tls": "cluster_356644261_5925771434_694150810", "edge": "907042282#4", "links": [0, 1, 2, 3], "bearing": 214.4}}, {"type": "Feature", "geometry": {"type": "Point", "coordinates": [139.6962654, 35.6574026]}, "properties": {"tls": "cluster_356644261_5925771434_694150810", "edge": "-32621918#1", "links": [4, 5, 6], "bearing": 327.0}}, {"type": "Feature", "geometry": {"type": "Point", "coordinates": [139.6959926, 35.65721]}, "properties": {"tls": "cluster_356644261_5925771434_694150810", "edge": "-1074238465", "links": [7, 8, 9], "bearing": 29.0}}, {"type": "Feature", "geometry": {"type": "Point", "coordinates": [139.6958567, 35.6573129]}, "properties": {"tls": "cluster_356644261_5925771434_694150810", "edge": "30012066#8", "links": [10, 11, 12, 13], "bearing": 84.0}}, {"type": "Feature", "geometry": {"type": "Point", "coordinates": [139.6960624, 35.6575535]}, "properties": {"tls": "cluster_356644261_5925771434_694150810", "edge": "1110672666#1", "links": [14, 15, 16], "bearing": 131.7}}, {"type": "Feature", "geometry": {"type": "Point", "coordinates": [139.7042648, 35.6569649]}, "properties": {"tls": "cluster_5787345704_728435743", "edge": "310155079#3", "links": [0, 1, 2, 3, 4, 5], "bearing": 316.3}}, {"type": "Feature", "geometry": {"type": "Point", "coordinates": [139.7041247, 35.6569396]}, "properties": {"tls": "cluster_5787345704_728435743", "edge": "-58777411#0", "links": [6, 7, 8, 9], "bearing": 46.3}}, {"type": "Feature", "geometry": {"type": "Point", "coordinates": [139.7042442, 35.6572109]}, "properties": {"tls": "cluster_5787345704_728435743", "edge": "852978892", "links": [10, 11, 12, 13], "bearing": 133.8}}, {"type": "Feature", "geometry": {"type": "Point", "coordinates": [139.6989652, 35.6646144]}, "properties": {"tls": "joinedS_1075301283_508442027", "edge": "41857283", "links": [0, 1], "bearing": 236.8}}, {"type": "Feature", "geometry": {"type": "Point", "coordinates": [139.6989293, 35.664473]}, "properties": {"tls": "joinedS_1075301283_508442027", "edge": "-1066165140", "links": [2, 3], "bearing": 340.6}}, {"type": "Feature", "geometry": {"type": "Point", "coordinates": [139.6988012, 35.6646261]}, "properties": {"tls": "joinedS_1075301283_508442027", "edge": "41521741#0", "links": [4, 5], "bearing": 143.8}}, {"type": "Feature", "geometry": {"type": "Point", "coordinates": [139.6988175, 35.6647928]}, "properties": {"tls": "joinedS_1075301283_508442027", "edge": "-261815507#2", "links": [6, 7], "bearing": 240.4}}, {"type": "Feature", "geometry": {"type": "Point", "coordinates": [139.69881, 35.6646645]}, "properties": {"tls": "joinedS_1075301283_508442027", "edge": "-41521741#1", "links": [8, 9], "bearing": 323.7}}, {"type": "Feature", "geometry": {"type": "Point", "coordinates": [139.6986328, 35.6646948]}, "properties": {"tls": "joinedS_1075301283_508442027", "edge": "153109040#4", "links": [10, 11], "bearing": 74.3}}, {"type": "Feature", "geometry": {"type": "Point", "coordinates": [139.7068152, 35.6702407]}, "properties": {"tls": "joinedS_1318940892_291758703", "edge": "798794768#1", "links": [0, 1, 2, 3], "bearing": 209.0}}, {"type": "Feature", "geometry": {"type": "Point", "coordinates": [139.7068162, 35.6701112]}, "properties": {"tls": "joinedS_1318940892_291758703", "edge": "-117083664#1", "links": [4, 5], "bearing": 302.9}}, {"type": "Feature", "geometry": {"type": "Point", "coordinates": [139.7066932, 35.6701907]}, "properties": {"tls": "joinedS_1318940892_291758703", "edge": "117083664#0", "links": [6, 7], "bearing": 157.2}}, {"type": "Feature", "geometry": {"type": "Point", "coordinates": [139.7067502, 35.6701531]}, "properties": {"tls": "joinedS_1318940892_291758703", "edge": "-117083664#0", "links": [8], "bearing": 339.8}}, {"type": "Feature", "geometry": {"type": "Point", "coordinates": [139.7066258, 35.6701081]}, "properties": {"tls": "joinedS_1318940892_291758703", "edge": "1368012337#3", "links": [9, 10, 11], "bearing": 33.4}}, {"type": "Feature", "geometry": {"type": "Point", "coordinates": [139.695575, 35.6636774]}, "properties": {"tls": "joinedS_252674360_2866947424", "edge": "-153109040#0", "links": [0], "bearing": 234.2}}, {"type": "Feature", "geometry": {"type": "Point", "coordinates": [139.6955506, 35.663532]}, "properties": {"tls": "joinedS_252674360_2866947424", "edge": "1377702568", "links": [1, 2], "bearing": 328.9}}, {"type": "Feature", "geometry": {"type": "Point", "coordinates": [139.6954649, 35.6635332]}, "properties": {"tls": "joinedS_252674360_2866947424", "edge": "1066165135#0", "links": [3, 4], "bearing": 352.7}}, {"type": "Feature", "geometry": {"type": "Point", "coordinates": [139.6954175, 35.663684]}, "properties": {"tls": "joinedS_252674360_2866947424", "edge": "-1134321671#1", "links": [5], "bearing": 150.4}}, {"type": "Feature", "geometry": {"type": "Point", "coordinates": [139.6953567, 35.6634052]}, "properties": {"tls": "joinedS_252674360_2866947424", "edge": "46770351#1", "links": [6, 7], "bearing": 48.5}}, {"type": "Feature", "geometry": {"type": "Point", "coordinates": [139.6953526, 35.6634791]}, "properties": {"tls": "joinedS_252674360_2866947424", "edge": "282756971", "links": [8], "bearing": 127.9}}, {"type": "Feature", "geometry": {"type": "Point", "coordinates": [139.7084158, 35.6583754]}, "properties": {"tls": "joinedS_256000430_256370194", "edge": "922476300", "links": [0, 1, 2], "bearing": 206.1}}, {"type": "Feature", "geometry": {"type": "Point", "coordinates": [139.7085142, 35.6582653]}, "properties": {"tls": "joinedS_256000430_256370194", "edge": "922476294#1", "links": [3, 4, 5, 6, 7], "bearing": 263.2}}, {"type": "Feature", "geometry": {"type": "Point", "coordinates": [139.708312, 35.6581359]}, "properties": {"tls": "joinedS_256000430_256370194", "edge": "-141293470#1", "links": [8, 9, 10], "bearing": 27.5}}, {"type": "Feature", "geometry": {"type": "Point", "coordinates": [139.7085558, 35.658619]}, "properties": {"tls": "joinedS_256000430_256370194", "edge": "914330752#5", "links": [11, 12], "bearing": 205.7}}, {"type": "Feature", "geometry": {"type": "Point", "coordinates": [139.7084429, 35.6583547]}, "properties": {"tls": "joinedS_256000430_256370194", "edge": "-922476300", "links": [13, 14], "bearing": 26.2}}, {"type": "Feature", "geometry": {"type": "Point", "coordinates": [139.7083474, 35.6584692]}, "properties": {"tls": "joinedS_256000430_256370194", "edge": "922476299#0", "links": [15, 16, 17, 18], "bearing": 86.9}}, {"type": "Feature", "geometry": {"type": "Point", "coordinates": [139.69109, 35.6579331]}, "properties": {"tls": "joinedS_258037422_318826197", "edge": "-31856144#1", "links": [0, 1], "bearing": 259.1}}, {"type": "Feature", "geometry": {"type": "Point", "coordinates": [139.6908723, 35.6578711]}, "properties": {"tls": "joinedS_258037422_318826197", "edge": "46773653", "links": [2, 3], "bearing": 81.6}}, {"type": "Feature", "geometry": {"type": "Point", "coordinates": [139.6909208, 35.6579866]}, "properties": {"tls": "joinedS_258037422_318826197", "edge": "285189336#3", "links": [4, 5, 6, 7], "bearing": 153.8}}, {"type": "Feature", "geometry": {"type": "Point", "coordinates": [139.6908448, 35.6578967]}, "properties": {"tls": "joinedS_258037422_318826197", "edge": "-46773653", "links": [8, 9], "bearing": 261.7}}, {"type": "Feature", "geometry": {"type": "Point", "coordinates": [139.6907928, 35.6577805]}, "properties": {"tls": "joinedS_258037422_318826197", "edge": "310155072#0", "links": [10, 11, 12], "bearing": 336.6}}, {"type": "Feature", "geometry": {"type": "Point", "coordinates": [139.6906388, 35.6578403]}, "properties": {"tls": "joinedS_258037422_318826197", "edge": "-310155098#1", "links": [13, 14], "bearing": 81.6}}, {"type": "Feature", "geometry": {"type": "Point", "coordinates": [139.7075587, 35.6569267]}, "properties": {"tls": "joinedS_382020739_cluster_1251060614_2393500079", "edge": "141293470#7", "links": [0, 1], "bearing": 206.0}}, {"type": "Feature", "geometry": {"type": "Point", "coordinates": [139.7074913, 35.6567478]}, "properties": {"tls": "joinedS_382020739_cluster_1251060614_2393500079", "edge": "-141293470#11", "links": [2, 3], "bearing": 27.3}}, {"type": "Feature", "geometry": {"type": "Point", "coordinates": [139.7074158, 35.6568748]}, "properties": {"tls": "joinedS_382020739_cluster_1251060614_2393500079", "edge": "141293460#0", "links": [4, 5], "bearing": 124.4}}, {"type": "Feature", "geometry": {"type": "Point", "coordinates": [139.7078939, 35.6574968]}, "properties": {"tls": "joinedS_382020739_cluster_1251060614_2393500079", "edge": "141293470#2", "links": [6, 7, 8], "bearing": 207.0}}, {"type": "Feature", "geometry": {"type": "Point", "coordinates": [139.7079344, 35.6573213]}, "properties": {"tls": "joinedS_382020739_cluster_1251060614_2393500079", "edge": "1087231783#1", "links": [9, 10, 11], "bearing": 293.3}}, {"type": "Feature", "geometry": {"type": "Point", "coordinates": [139.7077906, 35.6572557]}, "properties": {"tls": "joinedS_382020739_cluster_1251060614_2393500079", "edge": "-141293470#6", "links": [12, 13, 14], "bearing": 26.3}}, {"type": "Feature", "geometry": {"type": "Point", "coordinates": [139.7077447, 35.6574518]}, "properties": {"tls": "joinedS_382020739_cluster_1251060614_2393500079", "edge": "-141293462#1", "links": [15, 16, 17], "bearing": 119.7}}, {"type": "Feature", "geometry": {"type": "Point", "coordinates": [139.6942528, 35.6593603]}, "properties": {"tls": "joinedS_664495205_7596347448", "edge": "-31856144#13", "links": [0, 1], "bearing": 230.8}}, {"type": "Feature", "geometry": {"type": "Point", "coordinates": [139.6941223, 35.6592516]}, "properties": {"tls": "joinedS_664495205_7596347448", "edge": "31856144#10", "links": [2, 3], "bearing": 59.9}}, {"type": "Feature", "geometry": {"type": "Point", "coordinates": [139.6941294, 35.6592886]}, "properties": {"tls": "joinedS_664495205_7596347448", "edge": "-31856144#11", "links": [4, 5], "bearing": 239.0}}, {"type": "Feature", "geometry": {"type": "Point", "coordinates": [139.693956, 35.6591669]}, "properties": {"tls": "joinedS_664495205_7596347448", "edge": "31856144#8", "links": [6, 7], "bearing": 59.0}}, {"type": "Feature", "geometry": {"type": "Point", "coordinates": [139.6939686, 35.6592847]}, "properties": {"tls": "joinedS_664495205_7596347448", "edge": "-46773537#1", "links": [8, 9], "bearing": 141.3}}, {"type": "Feature", "geometry": {"type": "Point", "coordinates": [139.7127124, 35.658659]}, "properties": {"tls": "joinedS_981913505_cluster_8563870260_981913458", "edge": "922476291#0", "links": [0, 1, 2, 3, 4, 5], "bearing": 263.6}}, {"type": "Feature", "geometry": {"type": "Point", "coordinates": [139.7126769, 35.6585498]}, "properties": {"tls": "joinedS_981913505_cluster_8563870260_981913458", "edge": "-1328569395", "links": [6, 7, 8], "bearing": 323.1}}, {"type": "Feature", "geometry": {"type": "Point", "coordinates": [139.7125568, 35.6585129]}, "properties": {"tls": "joinedS_981913505_cluster_8563870260_981913458", "edge": "350053191#0", "links": [9, 10, 11], "bearing": 347.5}}, {"type": "Feature", "geometry": {"type": "Point", "coordinates": [139.7124754, 35.6587208]}, "properties": {"tls": "joinedS_981913505_cluster_8563870260_981913458", "edge": "-922476288", "links": [12, 13, 14], "bearing": 147.1}}, {"type": "Feature", "geometry": {"type": "Point", "coordinates": [139.7126076, 35.6587559]}, "properties": {"tls": "joinedS_981913505_cluster_8563870260_981913458", "edge": "922476286#0", "links": [15], "bearing": 264.5}}, {"type": "Feature", "geometry": {"type": "Point", "coordinates": [139.7125401, 35.6586935]}, "properties": {"tls": "joinedS_981913505_cluster_8563870260_981913458", "edge": "922476288", "links": [16, 17], "bearing": 327.1}}, {"type": "Feature", "geometry": {"type": "Point", "coordinates": [139.7122683, 35.6588414]}, "properties": {"tls": "joinedS_981913505_cluster_8563870260_981913458", "edge": "852978900#0", "links": [18, 19, 20, 21], "bearing": 83.9}}, {"type": "Feature", "geometry": {"type": "Point", "coordinates": [139.7123272, 35.6589558]}, "properties": {"tls": "joinedS_981913505_cluster_8563870260_981913458", "edge": "-284075890#1", "links": [22, 23], "bearing": 159.2}}]}