{"type":"FeatureCollection","features":[{"type":"Feature","geometry":{"type":"Point","coordinates":[139.700985,35.657177]},"properties":{"id":"11387427658","label":"\u6e0b\u8c37\u533a\u7279\u5225\u533a\u90531076\u53f7\u7dda\uff08\u88dc\u52a918\u53f7\u7dda\uff09","links":4,"phases":4,"in_edges":["1201531278#0","1256773487"],"corridor":null}},{"type":"Feature","geometry":{"type":"Point","coordinates":[139.712841,35.661965]},"properties":{"id":"2393491316","label":"\u9ad8\u6a39\u753a\u901a\u308a","links":12,"phases":4,"in_edges":["-140349264#1","-390852605#7","265033762#0","390852605#0"],"corridor":null}},{"type":"Feature","geometry":{"type":"Point","coordinates":[139.698018,35.652887]},"properties":{"id":"244091670","label":"\u6e0b\u8c37\u533a\u7279\u5225\u533a\u9053870\u53f7\u7dda\uff08\u91ce\u6ca2\u901a\u308a\uff09","links":8,"phases":4,"in_edges":["-221185495#0","258432973#0","49258336#4"],"corridor":null}},{"type":"Feature","geometry":{"type":"Point","coordinates":[139.69929,35.662364]},"properties":{"id":"250652228","label":"\u30aa\u30eb\u30ac\u30f3\u5742(\u52e4\u52b4\u798f\u7949\u4f1a\u9928\u524d) / \u30d5\u30a3\u30f3\u30ac\u30fc\u30a2\u30d9\u30cb\u30e5\u30fc","links":12,"phases":4,"in_edges":["-976275942","-976275946","691240263#2","976275950"],"corridor":null}},{"type":"Feature","geometry":{"type":"Point","coordinates":[139.697391,35.662168]},"properties":{"id":"250652233","label":"\u30aa\u30eb\u30ac\u30f3\u5742 / \u4e95\u30ce\u982d\u901a\u308a","links":3,"phases":4,"in_edges":["202129899#3","202129903#10"],"corridor":null}},{"type":"Feature","geometry":{"type":"Point","coordinates":[139.700814,35.660426]},"properties":{"id":"252674261","label":"\u795e\u5bae\u901a\u308a","links":7,"phases":4,"in_edges":["-1134562281#1","261815523#0"],"corridor":null}},{"type":"Feature","geometry":{"type":"Point","coordinates":[139.700828,35.662209]},"properties":{"id":"252674320","label":"\u30d5\u30a3\u30f3\u30ac\u30fc\u30a2\u30d9\u30cb\u30e5\u30fc / \u795e\u5bae\u901a\u308a","links":12,"phases":4,"in_edges":["-691240263#1","-691240265#3","1416014947#0","265139657#0"],"corridor":null}},{"type":"Feature","geometry":{"type":"Point","coordinates":[139.69268,35.654778]},"properties":{"id":"256368895","label":"\u65e7\u5c71\u624b\u901a\u308a / \u6de1\u5cf6\u901a\u308a","links":14,"phases":4,"in_edges":["-1391341945","136396048#1","28993425#0","813227199#2"],"corridor":null}},{"type":"Feature","geometry":{"type":"Point","coordinates":[139.691817,35.655898]},"properties":{"id":"258037424","label":"\u65e7\u5c71\u624b\u901a\u308a","links":11,"phases":4,"in_edges":["-1311822246","-813227199#1","813227199#0"],"corridor":null}},{"type":"Feature","geometry":{"type":"Point","coordinates":[139.709007,35.652269]},"properties":{"id":"2676633346","label":"\u660e\u6cbb\u901a\u308a","links":3,"phases":3,"in_edges":["1464243734#0"],"corridor":null}},{"type":"Feature","geometry":{"type":"Point","coordinates":[139.708905,35.652245]},"properties":{"id":"2844415465","label":"\u660e\u6cbb\u901a\u308a","links":2,"phases":3,"in_edges":["142757180#2"],"corridor":null}},{"type":"Feature","geometry":{"type":"Point","coordinates":[139.700489,35.659497]},"properties":{"id":"291758776","label":"\u65e7\u5927\u5c71\u8857\u9053 / \u795e\u5bae\u901a\u308a","links":20,"phases":8,"in_edges":["-1071930092","1134562284","23334685","260252968#0"],"corridor":null}},{"type":"Feature","geometry":{"type":"Point","coordinates":[139.701755,35.666707]},"properties":{"id":"295413669","label":"\u30d5\u30a1\u30a4\u30a2\u30fc\u901a\u308a","links":6,"phases":4,"in_edges":["-153108796#1","1230232225","967529919#1"],"corridor":null}},{"type":"Feature","geometry":{"type":"Point","coordinates":[139.7008,35.661129]},"properties":{"id":"309701920","label":"\u516c\u5712\u901a\u308a / \u795e\u5bae\u901a\u308a","links":7,"phases":6,"in_edges":["-261815523#3","691240265#0","976275941#2"],"corridor":null}},{"type":"Feature","geometry":{"type":"Point","coordinates":[139.710086,35.655341]},"properties":{"id":"382020729","label":"382020729","links":4,"phases":3,"in_edges":["-141322267#0","-84514717#0"],"corridor":null}},{"type":"Feature","geometry":{"type":"Point","coordinates":[139.70099,35.654229]},"properties":{"id":"383209719","label":"\u6e0b\u8c37\u533a\u7279\u5225\u533a\u9053870\u53f7\u7dda / \u6e0b\u8c37\u533a\u7279\u5225\u533a\u9053870\u53f7\u7dda\uff08\u91ce\u6ca2\u901a\u308a\uff09","links":9,"phases":6,"in_edges":["-56251322#2","-833121313#0","56251322#1","56252212#3"],"corridor":null}},{"type":"Feature","geometry":{"type":"Point","coordinates":[139.7044,35.661239]},"properties":{"id":"517547743","label":"\u7f8e\u7af9\u901a\u308a","links":7,"phases":4,"in_edges":["-931455735#6","931455735#3","96368959"],"corridor":null}},{"type":"Feature","geometry":{"type":"Point","coordinates":[139.706692,35.660711]},"properties":{"id":"517547828","label":"\u9752\u5c71\u901a\u308a","links":4,"phases":3,"in_edges":["172125348#0"],"corridor":null}},{"type":"Feature","geometry":{"type":"Point","coordinates":[139.699251,35.663428]},"properties":{"id":"597689467","label":"\u516c\u5712\u901a\u308a","links":9,"phases":4,"in_edges":["-1066165139#5","1066165139#2","138557611#0","866597195#0"],"corridor":null}},{"type":"Feature","geometry":{"type":"Point","coordinates":[139.702011,35.651896]},"properties":{"id":"650086670","label":"650086670","links":6,"phases":4,"in_edges":["-50988451#1","-56251322#0","50988451#0"],"corridor":null}},{"type":"Feature","geometry":{"type":"Point","coordinates":[139.695487,35.660056]},"properties":{"id":"664495203","label":"\u677e\u6d9b\u6587\u5316\u6751\u30b9\u30c8\u30ea\u30fc\u30c8","links":9,"phases":4,"in_edges":["-310155108#1","23334638#0","31856144#14"],"corridor":null}},{"type":"Feature","geometry":{"type":"Point","coordinates":[139.694977,35.652484]},"properties":{"id":"696656230","label":"\u65e7\u5c71\u624b\u901a\u308a","links":8,"phases":4,"in_edges":["-49257837#0","-817025208#6","817025208#4"],"corridor":null}},{"type":"Feature","geometry":{"type":"Point","coordinates":[139.70673,35.652484]},"properties":{"id":"701831690","label":"701831690","links":6,"phases":4,"in_edges":["-55893476#0","-74271100#2","74271100#1"],"corridor":null}},{"type":"Feature","geometry":{"type":"Point","coordinates":[139.713647,35.664474]},"properties":{"id":"885679780","label":"\u5fa1\u5e78\u901a\u308a","links":4,"phases":3,"in_edges":["-23811751#4","23811751#0"],"corridor":null}},{"type":"Feature","geometry":{"type":"Point","coordinates":[139.701266,35.663371]},"properties":{"id":"9698257844","label":"\u30d5\u30a1\u30a4\u30a2\u30fc\u901a\u308a / \u795e\u5bae\u901a\u308a","links":6,"phases":4,"in_edges":["-265139657#2","375809332#1","798794765#0"],"corridor":null}},{"type":"Feature","geometry":{"type":"Point","coordinates":[139.710948,35.655825]},"properties":{"id":"981913600","label":"981913600","links":12,"phases":4,"in_edges":["-141322255","-84514717#1","-84514718","84514717#0"],"corridor":null}},{"type":"Feature","geometry":{"type":"Point","coordinates":[139.697314,35.65874]},"properties":{"id":"GS_1014529837","label":"\u9053\u7384\u5742","links":4,"phases":3,"in_edges":["-907042282#3","1256602979"],"corridor":null}},{"type":"Feature","geometry":{"type":"Point","coordinates":[139.69686,35.660528]},"properties":{"id":"GS_252675826","label":"\u30aa\u30fc\u30c1\u30e3\u30fc\u30c9\u30ed\u30fc\u30c9 / \u6587\u5316\u6751\u901a\u308a","links":6,"phases":4,"in_edges":["-153108795#1","310155108#2","945779623#0"],"corridor":null}},{"type":"Feature","geometry":{"type":"Point","coordinates":[139.699393,35.659514]},"properties":{"id":"GS_252675828","label":"\u6587\u5316\u6751\u901a\u308a / \u9053\u7384\u5742","links":7,"phases":4,"in_edges":["-1134562285","-1134562287","1134562286#0"],"corridor":null}},{"type":"Feature","geometry":{"type":"Point","coordinates":[139.696839,35.664378]},"properties":{"id":"GS_508443341","label":"GS_508443341","links":6,"phases":4,"in_edges":["-1066615417","-1230232220#2","153109040#1"],"corridor":null}},{"type":"Feature","geometry":{"type":"Point","coordinates":[139.712541,35.665181]},"properties":{"id":"GS_cluster_1111686866_1111712244_158030016","label":"\u5fa1\u5e78\u901a\u308a / \u8868\u53c2\u9053","links":23,"phases":8,"in_edges":["-23811751#2","-375809334#2","273263244#0","475458685#4","944268181#0"],"corridor":null}},{"type":"Feature","geometry":{"type":"Point","coordinates":[139.71057,35.666088]},"properties":{"id":"GS_cluster_1111686870_158030002_2706852340","label":"\u30ed\u30cf\u30b9\u901a\u308a / \u539f\u4e8c\u672c\u901a\u308a","links":14,"phases":6,"in_edges":["260285926#0","390852610#0","41521096#11","890756978#0"],"corridor":null}},{"type":"Feature","geometry":{"type":"Point","coordinates":[139.702088,35.669154]},"properties":{"id":"GS_cluster_1111686902_258038133","label":"\u4ee3\u3005\u6728\u516c\u5712\u901a\u308a","links":15,"phases":4,"in_edges":["-967529921#1","293229188","41521073#0"],"corridor":null}},{"type":"Feature","geometry":{"type":"Point","coordinates":[139.702796,35.669489]},"properties":{"id":"GS_cluster_1111686947_1111686949","label":"\u8868\u53c2\u9053","links":11,"phases":6,"in_edges":["1152617163#0","41521330#0","944268180#2"],"corridor":null}},{"type":"Feature","geometry":{"type":"Point","coordinates":[139.706582,35.65525]},"properties":{"id":"GS_cluster_1562273629_2245842881_701831697","label":"\u516b\u5e61\u901a\u308a / \u660e\u6cbb\u901a\u308a","links":24,"phases":8,"in_edges":["-310155100","-56757425#1","1087233629#5","1147535100#0","141293466#0"],"corridor":null}},{"type":"Feature","geometry":{"type":"Point","coordinates":[139.703096,35.658039]},"properties":{"id":"GS_cluster_1685220981_1685220982_196971409_253890308","label":"\u516d\u672c\u6728\u901a\u308a / \u660e\u6cbb\u901a\u308a","links":29,"phases":10,"in_edges":["1087233628#0","1117318756","1330873776","172125347#0","310155083#1"],"corridor":null}},{"type":"Feature","geometry":{"type":"Point","coordinates":[139.702426,35.659544]},"properties":{"id":"GS_cluster_1685220989_252683801","label":"\u5bae\u76ca\u5742 / \u65e7\u5927\u5c71\u8857\u9053","links":15,"phases":6,"in_edges":["-375809353#1","1071930093","350053182#0","931455736#3"],"corridor":null}},{"type":"Feature","geometry":{"type":"Point","coordinates":[139.708207,35.66156]},"properties":{"id":"GS_cluster_256000220_256000221","label":"\u516b\u5e61\u901a\u308a / \u9752\u5c71\u901a\u308a","links":12,"phases":6,"in_edges":["-914330755#2","914330754#1","914330756#0"],"corridor":null}},{"type":"Feature","geometry":{"type":"Point","coordinates":[139.690217,35.655351]},"properties":{"id":"GS_cluster_256368891_318826043_318826081_318826086","label":"\u5c71\u624b\u901a\u308a / \u6de1\u5cf6\u901a\u308a","links":28,"phases":8,"in_edges":["-28993424#3","23672782#0","285189313#0","28993424#4","28993431#0","813226004#2"],"corridor":null}},{"type":"Feature","geometry":{"type":"Point","coordinates":[139.693279,35.654]},"properties":{"id":"GS_cluster_366856009_366856257","label":"\u65e7\u5c71\u624b\u901a\u308a / \u65e7\u5c71\u624b\u901a\u308a(\u795e\u6cc9\u753a)","links":16,"phases":6,"in_edges":["-817025208#1","1067228338#0","1067228341#0","968189476"],"corridor":null}},{"type":"Feature","geometry":{"type":"Point","coordinates":[139.694667,35.662893]},"properties":{"id":"cluster_10103318008_1014529364","label":"\u3068\u307f\u306f\u3061\u901a\u308a / \u5b87\u7530\u5ddd\u901a\u308a","links":4,"phases":3,"in_edges":["1071667141#0","46770374"],"corridor":null}},{"type":"Feature","geometry":{"type":"Point","coordinates":[139.698522,35.659958]},"properties":{"id":"cluster_1014529394_13038536249_1745599774_2253591032","label":"\u6587\u5316\u6751\u901a\u308a","links":7,"phases":5,"in_edges":["-153108795#12","153108795#3","162719649"],"corridor":null}},{"type":"Feature","geometry":{"type":"Point","coordinates":[139.704534,35.658183]},"properties":{"id":"cluster_10178958380_2138385688_2138385690_252835330_#2more","label":"\u516d\u672c\u6728\u901a\u308a / \u9752\u5c71\u901a\u308a(\u91d1\u738b\u5742)","links":12,"phases":7,"in_edges":["1035566982#0","211286456","23673079#0","284075894#3"],"corridor":null}},{"type":"Feature","geometry":{"type":"Point","coordinates":[139.705396,35.668493]},"properties":{"id":"cluster_1111686855_1685221090_3790205544_3790205545","label":"\u660e\u6cbb\u901a\u308a / \u8868\u53c2\u9053","links":18,"phases":4,"in_edges":["1368012336#8","41521096#1","798739072#9","798794768#4"],"corridor":null}},{"type":"Feature","geometry":{"type":"Point","coordinates":[139.705836,35.660073]},"properties":{"id":"cluster_13016446512_13016446513_13031660187_13031660190_#5more","label":"\u5bae\u76ca\u5742 / \u7f8e\u7af9\u901a\u308a","links":24,"phases":13,"in_edges":["-138671939#2","1035566979#0","1416429955","375809353#5","852978899#1"],"corridor":null}},{"type":"Feature","geometry":{"type":"Point","coordinates":[139.701594,35.656682]},"properties":{"id":"cluster_1539111428_2253585427_7682151511","label":"SAKURA\u30b9\u30c8\u30ea\u30fc\u30c8 / \u6e0b\u8c37\u533a\u7279\u5225\u533a\u90531076\u53f7\u7dda\uff08\u88dc\u52a918\u53f7\u7dda\uff09","links":9,"phases":6,"in_edges":["-1412628592#0","-822783956#1","49042351#1","51894812#4"],"corridor":null}},{"type":"Feature","geometry":{"type":"Point","coordinates":[139.709104,35.651363]},"properties":{"id":"cluster_1562273206_387766335","label":"\u660e\u6cbb\u901a\u308a","links":10,"phases":4,"in_edges":["141322270#0","142757180#0","1463386213#0"],"corridor":null}},{"type":"Feature","geometry":{"type":"Point","coordinates":[139.707845,35.654078]},"properties":{"id":"cluster_1562273613_701831710","label":"\u660e\u6cbb\u901a\u308a","links":14,"phases":6,"in_edges":["1147535099#0","142757183#0","1464243732#0","84154024#1"],"corridor":null}},{"type":"Feature","geometry":{"type":"Point","coordinates":[139.702232,35.661876]},"properties":{"id":"cluster_158030029_1685221014","label":"\u660e\u6cbb\u901a\u308a / \u7f8e\u7af9\u901a\u308a","links":15,"phases":6,"in_edges":["-23179562#1","-931455735#1","213526435#1","534157302#0"],"corridor":null}},{"type":"Feature","geometry":{"type":"Point","coordinates":[139.702348,35.664307]},"properties":{"id":"cluster_1685221042_517547731","label":"\u660e\u6cbb\u901a\u308a","links":14,"phases":4,"in_edges":["-798739070#1","41857282#0","798794764#0","798794768#14"],"corridor":null}},{"type":"Feature","geometry":{"type":"Point","coordinates":[139.710542,35.663101]},"properties":{"id":"cluster_2397973268_258035757_258035758_517545322","label":"\u9752\u5c71\u901a\u308a / \u9ad8\u6a39\u753a\u901a\u308a","links":22,"phases":8,"in_edges":["14984703#1","265033766#5","375809349#2","390852605#9","41857198#2"],"corridor":null}},{"type":"Feature","geometry":{"type":"Point","coordinates":[139.70215,35.663631]},"properties":{"id":"cluster_252683741_3790205548","label":"\u660e\u6cbb\u901a\u308a / \u795e\u5bae\u901a\u308a","links":9,"phases":6,"in_edges":["-798794765#1","798739071#0","931455737#0"],"corridor":null}},{"type":"Feature","geometry":{"type":"Point","coordinates":[139.691828,35.667852]},"properties":{"id":"cluster_295413616_309701891","label":"\u4e95\u30ce\u982d\u901a\u308a / \u4ee3\u3005\u6728\u516c\u5712\u901a\u308a","links":15,"phases":6,"in_edges":["1124142896#1","23334553#6","390536918#0","967529920#0"],"corridor":null}},{"type":"Feature","geometry":{"type":"Point","coordinates":[139.695073,35.655982]},"properties":{"id":"cluster_3017328715_356644779","label":"\u9053\u7384\u5742(\u9053\u7384\u5742\u4e0a)","links":10,"phases":6,"in_edges":["-297827762","-33476791","1071659158","1071659165"],"corridor":null}},{"type":"Feature","geometry":{"type":"Point","coordinates":[139.690745,35.667614]},"properties":{"id":"cluster_353653627_353653630","label":"\u4e95\u30ce\u982d\u901a\u308a / \u5bcc\u30f6\u8c371\u4e01\u76ee\u901a\u308a","links":12,"phases":6,"in_edges":["214711015#0","390536917#0","390536919"],"corridor":null}},{"type":"Feature","geometry":{"type":"Point","coordinates":[139.696081,35.657418]},"properties":{"id":"cluster_356644261_5925771434_694150810","label":"\u30e9\u30f3\u30d6\u30ea\u30f3\u30b0\u30b9\u30c8\u30ea\u30fc\u30c8 / \u88cf\u6e0b\u8c37\u901a\u308a","links":17,"phases":8,"in_edges":["-1074238465","-32621918#1","1110672666#1","30012066#8","907042282#4"],"corridor":null}},{"type":"Feature","geometry":{"type":"Point","coordinates":[139.704223,35.657036]},"properties":{"id":"cluster_5787345704_728435743","label":"\u660e\u6cbb\u901a\u308a / \u91d1\u738b\u6a4b","links":14,"phases":6,"in_edges":["-58777411#0","310155079#3","852978892"],"corridor":null}},{"type":"Feature","geometry":{"type":"Point","coordinates":[139.69882,35.664645]},"properties":{"id":"joinedS_1075301283_508442027","label":"\u30a4\u30a8\u30ed\u30fc\u30b9\u30c8\u30ea\u30fc\u30c8 / \u516c\u5712\u901a\u308a","links":12,"phases":6,"in_edges":["-1066165140","-261815507#2","-41521741#1","153109040#4","41521741#0","41857283"],"corridor":null}},{"type":"Feature","geometry":{"type":"Point","coordinates":[139.706739,35.670168]},"properties":{"id":"joinedS_1318940892_291758703","label":"\u660e\u6cbb\u901a\u308a","links":12,"phases":6,"in_edges":["-117083664#0","-117083664#1","117083664#0","1368012337#3","798794768#1"],"corridor":null}},{"type":"Feature","geometry":{"type":"Point","coordinates":[139.695457,35.66354]},"properties":{"id":"joinedS_252674360_2866947424","label":"\u4e95\u30ce\u982d\u901a\u308a","links":9,"phases":8,"in_edges":["-1134321671#1","-153109040#0","1066165135#0","1377702568","282756971","46770351#1"],"corridor":null}},{"type":"Feature","geometry":{"type":"Point","coordinates":[139.708426,35.658356]},"properties":{"id":"joinedS_256000430_256370194","label":"\u516b\u5e61\u901a\u308a / \u516d\u672c\u6728\u901a\u308a","links":19,"phases":6,"in_edges":["-141293470#1","-922476300","914330752#5","922476294#1","922476299#0","922476300"],"corridor":null}},{"type":"Feature","geometry":{"type":"Point","coordinates":[139.690865,35.65789]},"properties":{"id":"joinedS_258037422_318826197","label":"\u5c71\u624b\u901a\u308a / \u677e\u6d9b\u6587\u5316\u6751\u30b9\u30c8\u30ea\u30fc\u30c8","links":15,"phases":4,"in_edges":["-310155098#1","-31856144#1","-46773653","285189336#3","310155072#0","46773653"],"corridor":null}},{"type":"Feature","geometry":{"type":"Point","coordinates":[139.707726,35.657202]},"properties":{"id":"joinedS_382020739_cluster_1251060614_2393500079","label":"\u516b\u5e61\u901a\u308a","links":18,"phases":8,"in_edges":["-141293462#1","-141293470#11","-141293470#6","1087231783#1","141293460#0","141293470#2","141293470#7"],"corridor":null}},{"type":"Feature","geometry":{"type":"Point","coordinates":[139.694091,35.659266]},"properties":{"id":"joinedS_664495205_7596347448","label":"\u677e\u6d9b\u6587\u5316\u6751\u30b9\u30c8\u30ea\u30fc\u30c8","links":10,"phases":4,"in_edges":["-31856144#11","-31856144#13","-46773537#1","31856144#10","31856144#8"],"corridor":null}},{"type":"Feature","geometry":{"type":"Point","coordinates":[139.712528,35.658699]},"properties":{"id":"joinedS_981913505_cluster_8563870260_981913458","label":"\u516d\u672c\u6728\u901a\u308a","links":24,"phases":8,"in_edges":["-1328569395","-284075890#1","-922476288","350053191#0","852978900#0","922476286#0","922476288","922476291#0"],"corridor":null}}]}